[
    {
        "Altitude(m)": 611965.1760731685,
        "Argument of Periapsis(deg)": 0.0,
        "Eccentricity": 0.0,
        "Inclination(deg)": 60.0,
        "Latitude(deg)": 59.14013342575179,
        "Longitude(deg)": -41.030315003302405,
        "Mean Anomaly(deg)": -278.1818,
        "RAAN(deg)": 345.0,
        "Satellite Name": "Test1 1523",
        "Satellite Number": 1523,
        "Semi-Major Axis(m)": 6980739.136638005,
        "Time(s)": 0
    },
    {
        "Altitude(m)": 611995.8021234624,
        "Argument of Periapsis(deg)": 0.00010418945913296404,
        "Eccentricity": 0.0,
        "Inclination(deg)": 60.0,
        "Latitude(deg)": 59.2832349935314,
        "Longitude(deg)": -39.89695448893377,
        "Mean Anomaly(deg)": -277.56169385453813,
        "RAAN(deg)": 344.99957995086027,
        "Satellite Name": "Test1 1523",
        "Satellite Number": 1523,
        "Semi-Major Axis(m)": 6980739.136638005,
        "Time(s)": 10
    }
]